GOES 1 (SMS-C) [-]      
1 08366U 75100A   23270.49446575  .00000018  00000+0  00000+0 0  9991
2 08366   7.1334 289.8453 0003519 274.4977 213.6107  1.00250512175245
GOES 2 [-]              
1 10061U 77048A   23269.77764457  .00000044  00000+0  00000+0 0  9999
2 10061   8.7828 302.2794 0009850  30.9607 347.2798  0.99397115 36392
GOES 3 [-]              
1 10953U 78062A   23269.73778824 -.00000039  00000+0  00000+0 0  9990
2 10953   9.1551 307.1435 0003047 201.4090 317.2669  0.99363086118710
GOES 4 [-]              
1 11964U 80074A   23269.91881413  .00000046  00000+0  00000+0 0  9995
2 11964  10.1520 310.9797 0030810  88.5086 339.4017  0.99229140117579
GOES 5 [-]              
1 12472U 81049A   23270.51229628 -.00000051  00000+0  00000+0 0  9992
2 12472  11.1431 322.7541 0002902 220.6353 252.2491  1.00206890112990
GOES 6 [-]              
1 14050U 83041A   23270.47699830  .00000003  00000+0  00000+0 0  9997
2 14050  11.7826 328.1753 0004952 183.1727 263.1089  1.00229524206096
GOES 7 [-]              
1 17561U 87022A   23268.97893706 -.00000215  00000+0  00000+0 0  9996
2 17561  13.8367 344.8421 0003571 103.2679 251.0722  0.99908388117013
GOES 8 [-]              
1 23051U 94022A   23269.49071223  .00000024  00000+0  00000+0 0  9992
2 23051  13.5742  20.8996 0004617  82.0609 306.9836  0.98904119114295
GOES 9 [-]              
1 23581U 95025A   23269.15396809 -.00000229  00000+0  00000+0 0  9995
2 23581  13.0750  21.4159 0008753 136.9698 220.9820  0.98801302102922
GOES 10 [-]             
1 24786U 97019A   23269.61165786 -.00000212  00000+0  00000+0 0  9999
2 24786  11.9526  27.7729 0028952 207.5919 163.4962  0.99126811 96212
GOES 11 [-]             
1 26352U 00022A   23270.43473000  .00000002  00000+0  00000+0 0  9997
2 26352   9.6765  55.4822 0003454 160.7133 206.0972  0.99040179 85150
GOES 12 [-]             
1 26871U 01031A   23269.20327373 -.00000256  00000+0  00000+0 0  9990
2 26871  10.3585  45.0095 0002042 306.6207  63.2523  0.99140146 80905
EWS-G1 (GOES 13) [+]    
1 29155U 06018A   23270.06946831  .00000023  00000+0  00000+0 0  9991
2 29155   1.7651  90.1302 0005234 125.8072 236.2649  1.00275863 63540
GOES 14 [B]             
1 35491U 09033A   23269.60568799 -.00000080  00000+0  00000+0 0  9996
2 35491   0.3810 265.3563 0003916 232.4750 336.8085  1.00271231 52139
GOES 15 [B]             
1 36411U 10008A   23270.02757789 -.00000275  00000+0  00000+0 0  9996
2 36411   0.3596 274.9021 0004948 310.6131 251.2758  0.99975068 49674
GOES 16 [+]             
1 41866U 16071A   23269.82733446 -.00000262  00000+0  00000+0 0  9998
2 41866   0.0726 286.9582 0000579 291.4527   9.5991  1.00271698 25131
GOES 17 [+]             
1 43226U 18022A   23270.02479876 -.00000105  00000+0  00000+0 0  9992
2 43226   0.0444 351.1315 0002045 181.9423  96.7278  1.00270917 20467
GOES 18 [+]             
1 51850U 22021A   23270.41248126  .00000082  00000+0  00000+0 0  9996
2 51850   0.0108 111.0976 0000475  85.3859 180.9484  1.00270247  5843
